{"type": "FeatureCollection", "features": [{"type": "Feature", "properties": {"name": "Unidade A"}, "geometry": {"type": "Polygon", "coordinates": [[[0, 0], [0.8, 0], [0.8, 0.8], [0, 0.8], [0, 0]]]}}, {"type": "Feature", "properties": {"name": "Unidade B"}, "geometry": {"type": "Polygon", "coordinates": [[[1, 0], [1.8, 0], [1.8, 0.8], [1, 0.8], [1, 0]]]}}, {"type": "Feature", "properties": {"name": "Unidade C"}, "geometry": {"type": "Polygon", "coordinates": [[[2, 0], [2.8, 0], [2.8, 0.8], [2, 0.8], [2, 0]]]}}]}
